OBJECT_NAME,OBJECT_ID,EPOCH,MEAN_MOTION,ECCENTRICITY,INCLINATION,RA_OF_ASC_NODE,ARG_OF_PERICENTER,MEAN_ANOMALY,EPHEMERIS_TYPE,CLASSIFICATION_TYPE,NORAD_CAT_ID,ELEMENT_SET_NO,REV_AT_EPOCH,BSTAR,MEAN_MOTION_DOT,MEAN_MOTION_DDOT
DTC TEST OBJECT A,2026-128A,2026-06-13T16:46:14.959200,15.55676420,.0008204,54.9941,321.1428,275.7594,84.2506,0,U,69472,999,68,.37869E-3,.26094E-3,0
DTC TEST OBJECT B,2026-128B,2026-06-13T16:45:16.375680,15.56093574,.0008258,55.0033,321.1410,276.8245,83.1851,0,U,69473,999,67,.39829E-3,.27909E-3,0
2026-132A,2026-132A,2026-06-13T21:13:26.603616,14.99041241,.001219,97.6917,228.6031,283.6406,76.3459,0,U,69502,999,28,.49722E-4,.544E-5,0
2026-132B,2026-132B,2026-06-13T21:13:16.949280,14.99132931,.0012141,97.6948,228.6040,285.8591,74.1293,0,U,69503,999,28,.37682E-4,.399E-5,0
2026-132C,2026-132C,2026-06-13T19:36:06.817248,14.99754501,.0013665,97.6890,228.5358,297.7771,62.2066,0,U,69504,999,27,.12157E-3,.1445E-4,0
2026-132D,2026-132D,2026-06-13T09:58:23.387808,15.00977591,.00110344,97.6871,228.1350,315.3023,44.7311,0,U,69505,999,20,.12291978E-3,.1509E-4,0
2026-132E,2026-132E,2026-06-13T09:58:13.362816,15.00908353,.00113267,97.6848,228.1411,323.9735,36.0724,0,U,69506,999,21,.13578279E-3,.1671E-4,0
2026-132F,2026-132F,2026-06-13T09:58:10.881408,15.01040982,.00109152,97.6869,228.1362,319.8335,40.2082,0,U,69507,999,20,.25250362E-3,.317E-4,0
ZHUQUE-2E R/B,2026-128C,2026-06-13T19:22:37.658784,15.62647846,.0065962,54.5308,319.8506,334.9361,24.8473,0,U,69537,999,69,.41664E-3,.42028E-3,0
